{
  "name": "SATGUS",
  "line1": "1 62713U 25009DJ  25295.21867411  .00009139  00000+0  79631-3 0  9998",
  "line2": "2 62713  97.7258  13.9182 0002167 183.2422 176.8786 14.97110869 41904",
  "fetched_at": "2025-10-23T00:18:04.411627+00:00"
}